OBJECT_NAME,OBJECT_ID,EPOCH,MEAN_MOTION,ECCENTRICITY,INCLINATION,RA_OF_ASC_NODE,ARG_OF_PERICENTER,MEAN_ANOMALY,EPHEMERIS_TYPE,CLASSIFICATION_TYPE,NORAD_CAT_ID,ELEMENT_SET_NO,REV_AT_EPOCH,BSTAR,MEAN_MOTION_DOT,MEAN_MOTION_DDOT
LOPEN,2024-149F,2026-06-27T04:52:24.660480,15.39968009,.00016765,97.3785,261.6503,166.0070,194.1223,0,U,60473,999,10380,.4108453E-3,.16306E-3,0
ROCK,2024-149G,2026-06-27T04:33:08.170560,15.39959445,.00019735,97.3780,261.6519,167.5776,192.5519,0,U,60474,999,10380,.41182346E-3,.1634E-3,0
CONNECTA IOT-3,2024-149H,2026-06-27T03:58:42.227328,15.23625994,.00021773,97.3738,254.0388,195.5659,164.5512,0,U,60475,999,10332,.195802E-3,.462E-4,0
QUBE,2024-149J,2026-06-27T04:43:25.273920,15.47663610,.00025549,97.3783,264.8253,167.4703,192.6611,0,U,60476,999,10401,.57200452E-3,.29526E-3,0
WREN-1,2024-149L,2026-06-27T04:40:08.376960,15.41938533,.00040552,97.3771,262.4140,207.8580,152.2451,0,U,60478,999,10386,.56436621E-3,.2397E-3,0
TOMORROW-S1,2024-149M,2026-06-27T04:33:33.935904,15.32855865,.00025701,97.3756,258.6309,176.4150,183.7111,0,U,60479,999,10362,.26310984E-3,.8272E-4,0
FLOCK 4BE-18,2024-149N,2026-06-27T04:54:04.634784,15.42169070,.00038197,97.3735,262.0398,197.2658,162.8460,0,U,60480,999,10385,.42929129E-3,.18339E-3,0
FLOCK 4BE-7,2024-149P,2026-06-27T05:18:54.267552,15.40713830,.00029519,97.3763,261.3776,197.1295,162.9852,0,U,60481,999,10379,.53971046E-3,.21998E-3,0
TOMORROW-S2,2024-149T,2026-06-27T05:17:11.747904,15.32891980,.00021076,97.3822,259.1596,201.7577,158.3576,0,U,60485,999,10362,.26823893E-3,.8444E-4,0
FLOCK 4BE-36,2024-149U,2026-06-27T04:04:59.056608,15.43016774,.00032932,97.3750,262.7191,207.8232,152.2840,0,U,60486,999,10389,.38172536E-3,.16762E-3,0
FLOCK 4BE-25,2024-149V,2026-06-27T03:59:18.567168,15.39085913,.00023148,97.3803,261.3849,184.6848,175.4376,0,U,60487,999,10377,.41767245E-3,.16105E-3,0
FLOCK 4BE-31,2024-149W,2026-06-27T04:36:28.202976,15.44470965,.00023654,97.3802,263.6282,198.1231,161.9933,0,U,60488,999,10392,.50372398E-3,.23278E-3,0
FLOCK 4BE-20,2024-149X,2026-06-27T04:47:37.731264,15.38309813,.00034346,97.3702,260.2723,205.5586,154.5490,0,U,60489,999,10375,.39560231E-3,.14868E-3,0
FLOCK 4BE-23,2024-149Y,2026-06-27T04:37:12.188352,15.37914663,.00029455,97.3787,260.6470,209.5231,150.5848,0,U,60490,999,10373,.3950593E-3,.14657E-3,0
FLOCK 4BE-17,2024-149AA,2026-06-27T05:28:05.617056,15.40064915,.00030388,97.3777,261.6773,195.2965,164.8189,0,U,60492,999,10380,.4195517E-3,.16709E-3,0
NUSAT-50 (NANCY ROMAN),2024-149AB,2026-06-27T04:12:28.419552,15.30023690,.00042737,97.3791,259.3618,145.8590,214.2926,0,U,60493,999,10365,.35821956E-3,.10341E-3,0
FLOCK 4BE-22,2024-149AC,2026-06-27T04:48:30.971808,15.41457919,.00032081,97.3739,261.8572,209.1015,151.0054,0,U,60494,999,10384,.40030931E-3,.1669E-3,0
FLOCK 4BE-34,2024-149AD,2026-06-27T05:13:20.375616,15.41440506,.00030661,97.3787,262.7035,217.2158,142.8877,0,U,60495,999,10387,.40377419E-3,.16826E-3,0
TYCHE,2024-149AE,2026-06-27T04:02:37.120416,15.25833154,.0001661,97.3758,255.8516,220.6324,139.4791,0,U,60496,999,10342,.189163E-3,.4767E-4,0
FLOCK 4BE-32,2024-149AF,2026-06-27T04:18:33.760224,15.42483212,.00033106,97.3727,262.2161,213.2429,146.8611,0,U,60497,999,10387,.44250393E-3,.19106E-3,0
NUSAT-48 (HENRIETTA LEAVITT),2024-149AG,2026-06-27T05:30:13.402656,15.30027368,.00029311,97.3924,259.6766,222.9994,137.1017,0,U,60498,999,10367,.34932149E-3,.10081E-3,0
FLOCK 4BE-30,2024-149AH,2026-06-27T05:08:11.877504,15.59109665,.00055323,97.3778,264.0862,223.5848,136.4972,0,U,60499,999,10333,.2018752E-2,.160514E-2,0
NUSAT-49 (KLARA DAN VON NEUMANN),2024-149AJ,2026-06-27T04:57:52.943328,15.30103731,.00007796,97.3786,259.4252,236.6477,123.4689,0,U,60500,999,10366,.31670332E-3,.9153E-4,0
FLOCK 4BE-11,2024-149AK,2026-06-27T04:03:11.223360,15.43299421,.00034827,97.3705,262.4449,214.1705,145.9319,0,U,60501,999,10389,.44111959E-3,.19577E-3,0
YAM-7,2024-149AN,2026-06-27T04:22:17.121504,15.31949601,.00019742,97.3792,258.3916,242.1869,117.9173,0,U,60504,999,10358,.25203937E-3,.7698E-4,0
FLOCK 4BE-24,2024-149AP,2026-06-27T05:16:08.915232,15.43434845,.00034644,97.3721,262.7561,227.7238,132.3716,0,U,60505,999,10391,.4766672E-3,.21262E-3,0
LUR-1,2024-149AQ,2026-06-27T04:24:29.143296,15.30229555,.00025483,97.3742,256.9397,264.2159,95.8792,0,U,60506,999,10350,.25207446E-3,.7297E-4,0
TANAGER-1,2024-149AR,2026-06-27T06:20:55.060224,15.44777616,.00029439,97.2406,272.4919,269.9285,90.1627,0,U,60507,999,10459,.9916531E-5,.378E-5,0
